NORAD_CAT_ID,OBJECT_NAME,OBJECT_TYPE,EPOCH,MEAN_MOTION,ECCENTRICITY,INCLINATION,RA_OF_ASC_NODE,ARG_OF_PERICENTER,MEAN_ANOMALY,BSTAR,MEAN_MOTION_DOT,MEAN_MOTION_DDOT,TLE_LINE0,TLE_LINE1,TLE_LINE2,SEMIMAJOR_AXIS,PERIOD,APOGEE,PERIGEE,DECAYED
53413.0,STARLINK-4500,PAYLOAD,2024-01-21 21:57:38,15.0884209,0.0001694,53.2178,5.6884,107.8124,252.3053,0.00018242,2.617e-05,0.0,0 STARLINK-4500,1 53413U 22097AB  24021.91502456  .00002617  00000-0  18242-3 0  9993,2 53413  53.2178   5.6884 0001694 107.8124 252.3053 15.08842090 81239,6917.874,95.437,540.911,538.567,0.0
53413.0,STARLINK-4500,PAYLOAD,2024-01-22 04:19:10,15.08840016,0.0001407,53.2171,4.4958,91.6905,268.4249,8.4724e-05,1.061e-05,0.0,0 STARLINK-4500,1 53413U 22097AB  24022.17998744  .00001061  00000-0  84724-4 0  9992,2 53413  53.2171   4.4958 0001407  91.6905 268.4249 15.08840016 80780,6917.88,95.438,540.719,538.772,0.0
53413.0,STARLINK-4500,PAYLOAD,2024-01-22 09:05:20,15.08843038,0.0001426,53.2171,3.6026,97.0814,263.034,0.00017453,2.491e-05,0.0,0 STARLINK-4500,1 53413U 22097AB  24022.37870655  .00002491  00000-0  17453-3 0  9996,2 53413  53.2171   3.6026 0001426  97.0814 263.0340 15.08843038 81306,6917.871,95.437,540.723,538.75,0.0
53413.0,STARLINK-4500,PAYLOAD,2024-01-23 05:45:21,15.08841532,0.0001712,53.2186,359.7364,108.1615,251.9563,0.00013763,1.903e-05,0.0,0 STARLINK-4500,1 53413U 22097AB  24023.23982823  .00001903  00000-0  13763-3 0  9990,2 53413  53.2186 359.7364 0001712 108.1615 251.9563 15.08841532 80942,6917.876,95.437,540.925,538.556,0.0
53413.0,STARLINK-4500,PAYLOAD,2024-01-24 05:36:08,15.08848056,0.0001968,53.2195,355.2781,70.6802,289.4402,0.00024115,3.553e-05,0.0,0 STARLINK-4500,1 53413U 22097AB  24024.23342893  .00003553  00000-0  24115-3 0  9994,2 53413  53.2195 355.2781 0001968  70.6802 289.4402 15.08848056 81587,6917.856,95.437,541.082,538.359,0.0
53413.0,STARLINK-4500,PAYLOAD,2024-01-25 02:16:09,15.08840729,0.0001931,53.2189,351.4084,74.6893,285.4313,1.6504e-05,-2.6e-07,0.0,0 STARLINK-4500,1 53413U 22097AB  24025.09455254 -.00000026  00000-0  16504-4 0  9992,2 53413  53.2189 351.4084 0001931  74.6893 285.4313 15.08840729 81225,6917.878,95.438,541.079,538.407,0.0
53413.0,STARLINK-4500,PAYLOAD,2024-01-26 03:42:19,15.08840349,0.0001636,53.2184,346.6549,97.4156,262.7022,3.5372e-05,2.75e-06,0.0,0 STARLINK-4500,1 53413U 22097AB  24026.15439599  .00000275  00000-0  35372-4 0  9993,2 53413  53.2184 346.6549 0001636  97.4156 262.7022 15.08840349 81389,6917.879,95.438,540.876,538.613,0.0
53413.0,STARLINK-4500,PAYLOAD,2024-01-27 03:33:06,15.0883992,0.0001661,53.218,342.2007,127.5269,232.5875,0.00020815,3.026e-05,0.0,0 STARLINK-4500,1 53413U 22097AB  24027.14799663  .00003026  00000-0  20815-3 0  9996,2 53413  53.2180 342.2007 0001661 127.5269 232.5875 15.08839920 82020,6917.881,95.438,540.895,538.597,0.0
53413.0,STARLINK-4500,PAYLOAD,2024-01-27 21:02:21,15.08837732,0.0001363,53.218,338.9245,105.7159,254.3984,3.6034e-06,-2.31e-06,0.0,0 STARLINK-4500,1 53413U 22097AB  24027.87663990 -.00000231  00000-0  36034-5 0  9997,2 53413  53.2180 338.9245 0001363 105.7159 254.3984 15.08837732 82135,6917.887,95.438,540.695,538.809,0.0
53413.0,STARLINK-4500,PAYLOAD,2024-01-28 03:23:53,15.08845956,0.0001573,53.2199,337.7398,105.8431,254.2734,8.1321e-05,1.007e-05,0.0,0 STARLINK-4500,1 53413U 22097AB  24028.14159539  .00001007  00000-0  81321-4 0  9996,2 53413  53.2199 337.7398 0001573 105.8431 254.2734 15.08845956 81686,6917.862,95.437,540.815,538.639,0.0
53413.0,STARLINK-4500,PAYLOAD,2024-01-29 03:14:41,15.08836127,0.0001705,53.2205,333.2779,113.1553,246.9619,0.00011734,1.58e-05,0.0,0 STARLINK-4500,1 53413U 22097AB  24029.13520032  .00001580  00000-0  11734-3 0  9992,2 53413  53.2205 333.2779 0001705 113.1553 246.9619 15.08836127 81839,6917.892,95.438,540.937,538.578,0.0
53413.0,STARLINK-4500,PAYLOAD,2024-01-30 01:30:04,15.08846694,0.0001522,53.2202,329.1082,103.3189,256.7973,3.7323e-05,3.06e-06,0.0,0 STARLINK-4500,1 53413U 22097AB  24030.06255600  .00000306  00000-0  37323-4 0  9990,2 53413  53.2202 329.1082 0001522 103.3189 256.7973 15.08846694 82462,6917.86,95.437,540.778,538.672,0.0
53413.0,STARLINK-4500,PAYLOAD,2024-01-31 02:56:14,15.08846053,0.0001335,53.219,324.3517,85.375,274.7395,8.0581e-05,9.95e-06,0.0,0 STARLINK-4500,1 53413U 22097AB  24031.12239499  .00000995  00000-0  80581-4 0  9994,2 53413  53.2190 324.3517 0001335  85.3750 274.7395 15.08846053 82134,6917.862,95.437,540.65,538.803,0.0
53413.0,STARLINK-4500,PAYLOAD,2024-02-01 02:47:02,15.08837362,0.0001903,53.2199,319.8919,62.6582,297.4604,5.5238e-05,5.91e-06,0.0,0 STARLINK-4500,1 53413U 22097AB  24032.11600539  .00000591  00000-0  55238-4 0  9994,2 53413  53.2199 319.8919 0001903  62.6582 297.4604 15.08837362 82284,6917.888,95.438,541.07,538.437,0.0
53413.0,STARLINK-4500,PAYLOAD,2024-02-02 01:02:26,15.08842017,0.0001922,53.2198,315.7313,64.4656,295.6535,5.1539e-05,5.32e-06,0.0,0 STARLINK-4500,1 53413U 22097AB  24033.04336444  .00000532  00000-0  51539-4 0  9993,2 53413  53.2198 315.7313 0001922  64.4656 295.6535 15.08842017 82915,6917.874,95.437,541.069,538.41,0.0
53413.0,STARLINK-4500,PAYLOAD,2024-02-02 18:31:40,15.08844358,0.0001903,53.2192,312.4619,67.915,292.2044,0.00012372,1.682e-05,0.0,0 STARLINK-4500,1 53413U 22097AB  24033.77200116  .00001682  00000-0  12372-3 0  9997,2 53413  53.2192 312.4619 0001903  67.9150 292.2044 15.08844358 82534,6917.867,95.437,541.049,538.416,0.0
53413.0,STARLINK-4500,PAYLOAD,2024-02-02 21:42:27,15.0884383,0.000163,53.2187,311.866,78.7218,281.3957,0.00011131,1.484e-05,0.0,0 STARLINK-4500,1 53413U 22097AB  24033.90448026  .00001484  00000-0  11131-3 0  9998,2 53413  53.2187 311.8660 0001630  78.7218 281.3957 15.08843830 83042,6917.869,95.437,540.861,538.606,0.0
53413.0,STARLINK-4500,PAYLOAD,2024-02-03 00:53:13,15.08844843,0.0001646,53.2182,311.2708,78.9898,281.128,0.00012261,1.664e-05,0.0,0 STARLINK-4500,1 53413U 22097AB  24034.03695922  .00001664  00000-0  12261-3 0  9997,2 53413  53.2182 311.2708 0001646  78.9898 281.1280 15.08844843 83061,6917.866,95.437,540.869,538.592,0.0
53413.0,STARLINK-4500,PAYLOAD,2024-02-03 21:33:14,15.08840739,0.0001702,53.2189,307.4061,112.3146,247.8027,1.4405e-05,-5.9e-07,0.0,0 STARLINK-4500,1 53413U 22097AB  24034.89808383 -.00000059  00000-0  14405-4 0  9999,2 53413  53.2189 307.4061 0001702 112.3146 247.8027 15.08840739 82707,6917.878,95.438,540.921,538.566,0.0
53413.0,STARLINK-4500,PAYLOAD,2024-02-04 03:54:46,15.08842042,0.0001441,53.2178,306.2129,104.5304,255.5848,3.0495e-05,1.97e-06,0.0,0 STARLINK-4500,1 53413U 22097AB  24035.16304195  .00000197  00000-0  30495-4 0  9991,2 53413  53.2178 306.2129 0001441 104.5304 255.5848 15.08842042 83231,6917.874,95.437,540.736,538.742,0.0
53413.0,STARLINK-4500,PAYLOAD,2024-02-04 21:24:01,15.08845017,0.0001407,53.2179,302.9401,108.6362,251.4783,-2.7413e-06,-3.32e-06,0.0,0 STARLINK-4500,1 53413U 22097AB  24035.89168086 -.00000332  00000-0 -27413-5 0  9998,2 53413  53.2179 302.9401 0001407 108.6362 251.4783 15.08845017 83349,6917.865,95.437,540.703,538.757,0.0
53413.0,STARLINK-4500,PAYLOAD,2024-02-05 03:45:33,15.08848552,0.0001469,53.2178,301.7498,109.796,250.3191,2.5918e-05,1.25e-06,0.0,0 STARLINK-4500,1 53413U 22097AB  24036.15663702  .00000125  00000-0  25918-4 0  9998,2 53413  53.2178 301.7498 0001469 109.7960 250.3191 15.08848552 82892,6917.854,95.437,540.735,538.703,0.0
53413.0,STARLINK-4500,PAYLOAD,2024-02-05 22:50:11,15.08838809,0.0001395,53.2178,298.1819,97.1813,262.9337,7.909e-05,9.71e-06,0.0,0 STARLINK-4500,1 53413U 22097AB  24036.95152327  .00000971  00000-0  79090-4 0  9991,2 53413  53.2178 298.1819 0001395  97.1813 262.9337 15.08838809 83507,6917.884,95.438,540.714,538.784,0.0
53413.0,STARLINK-4500,PAYLOAD,2024-02-06 00:25:34,15.08842857,0.0001392,53.218,297.8856,99.3809,260.7341,9.4172e-05,1.211e-05,0.0,0 STARLINK-4500,1 53413U 22097AB  24037.01776035  .00001211  00000-0  94172-4 0  9993,2 53413  53.2180 297.8856 0001392  99.3809 260.7341 15.08842857 83029,6917.872,95.437,540.7,538.774,0.0
53413.0,STARLINK-4500,PAYLOAD,2024-02-06 22:40:58,15.088453,0.0001454,53.2175,293.7234,114.1444,245.9701,1.7951e-05,-2e-08,0.0,0 STARLINK-4500,1 53413U 22097AB  24037.94512110 -.00000002  00000-0  17951-4 0  9995,2 53413  53.2175 293.7234 0001454 114.1444 245.9701 15.08845300 83658,6917.864,95.437,540.735,538.723,0.0
53413.0,STARLINK-4500,PAYLOAD,2024-02-07 03:27:07,15.08844337,0.0001488,53.2173,292.8292,114.0284,246.0864,3.8343e-05,3.22e-06,0.0,0 STARLINK-4500,1 53413U 22097AB  24038.14384001  .00000322  00000-0  38343-4 0  9996,2 53413  53.2173 292.8292 0001488 114.0284 246.0864 15.08844337 83198,6917.867,95.437,540.762,538.703,0.0
53413.0,STARLINK-4500,PAYLOAD,2024-02-07 09:48:40,15.08841244,0.0001456,53.2175,291.6392,81.5948,278.5209,5.0462e-05,5.15e-06,0.0,0 STARLINK-4500,1 53413U 22097AB  24038.40880377  .00000515  00000-0  50462-4 0  9992,2 53413  53.2175 291.6392 0001456  81.5948 278.5209 15.08841244 83724,6917.877,95.437,540.749,538.734,0.0
53413.0,STARLINK-4500,PAYLOAD,2024-02-07 20:56:23,15.08833965,0.0002011,53.2173,289.5601,85.179,274.9431,1.9844e-05,2.8e-07,0.0,0 STARLINK-4500,1 53413U 22097AB  24038.87249146  .00000028  00000-0  19844-4 0  9994,2 53413  53.2173 289.5601 0002011  85.1790 274.9431 15.08833965 83799,6917.899,95.438,541.155,538.373,0.0
53413.0,STARLINK-4500,PAYLOAD,2024-02-07 22:31:46,15.08836289,0.0001396,53.2172,289.2669,91.8253,268.2899,-6.6477e-05,-1.346e-05,0.0,0 STARLINK-4500,1 53413U 22097AB  24038.93873195 -.00001346  00000-0 -66477-4 0  9998,2 53413  53.2172 289.2669 0001396  91.8253 268.2899 15.08836289 83316,6917.892,95.438,540.722,538.791,0.0
53413.0,STARLINK-4500,PAYLOAD,2024-02-08 09:39:28,15.0884179,0.0001503,53.2178,287.1854,88.1868,271.9296,-1.808e-05,-5.76e-06,0.0,0 STARLINK-4500,1 53413U 22097AB  24039.40240871 -.00000576  00000-0 -18080-4 0  9991,2 53413  53.2178 287.1854 0001503  88.1868 271.9296 15.08841790 83872,6917.875,95.437,540.78,538.7,0.0
